[{"OBJECT_NAME":"WILDFIRE 1","OBJECT_ID":"2023-133H","EPOCH":"2026-03-09T14:37:46.070400","MEAN_MOTION":13.8571565,"ECCENTRICITY":0.0005359,"INCLINATION":80.9966,"RA_OF_ASC_NODE":102.6376,"ARG_OF_PERICENTER":268.5807,"MEAN_ANOMALY":91.4735,"EPHEMERIS_TYPE":0,"CLASSIFICATION_TYPE":"U","NORAD_CAT_ID":57764,"ELEMENT_SET_NO":999,"REV_AT_EPOCH":12726,"BSTAR":9.768e-5,"MEAN_MOTION_DOT":1.23e-6,"MEAN_MOTION_DDOT":0},{"OBJECT_NAME":"METEOR 2-20","OBJECT_ID":"1990-086A","EPOCH":"2026-03-09T22:13:46.221888","MEAN_MOTION":13.84452784,"ECCENTRICITY":0.00124144,"INCLINATION":82.521,"RA_OF_ASC_NODE":276.7195,"ARG_OF_PERICENTER":307.855,"MEAN_ANOMALY":52.1486,"EPHEMERIS_TYPE":0,"CLASSIFICATION_TYPE":"U","NORAD_CAT_ID":20826,"ELEMENT_SET_NO":999,"REV_AT_EPOCH":79058,"BSTAR":2.8851715e-5,"MEAN_MOTION_DOT":4.7e-7,"MEAN_MOTION_DDOT":0}]
